[Satellite]
VERSION=1.1
NAME=LEMUR-2-WINGO
NICKNAME=LEMUR-2-WINGO
TLE1=1 41874U 16062F   17186.06574373  .00001317  00000-0  70933-4 0  9995
TLE2=2 41874  51.6499   2.2248 0005786 288.9396 159.7846 15.22142700 33650
